STRIX-4                 
1 60352U 24137A   26068.65404516  .00020530  00000+0  71820-3 0  9996
2 60352  43.0134 129.8162 0016840   5.2738 354.8289 15.29026223 88766
STARLINK-32362          
1 61845U 24202A   26068.46841238 -.00000599  00000+0 -12281-4 0  9994
2 61845  42.9981 228.0081 0000194 261.9955  98.0874 15.27573140 76016
